{
    "satellites": [
        {
            "name": "starlink314",
            "title": "Starlink-314 (G10-21) (new)",
            "tle": [
                "1 70584C 25243Y   25306.05048611 -.01459000  00000+0 -42353-2 0  3062",
                "2 70584  53.1537 124.5116 0000445  84.9979 249.8026 15.93676292    11"
            ],
            "stdMag": 5,
            "noradId": "70584",
            "tleUrl": "http://celestrak.org/NORAD/elements/supplemental/sup-gp.php?FILE=starlink&FORMAT=tle",
            "launchDate": "2025-10-26T15:00:40.000Z",
            "active": true,
            "batch": [
                {
                    "noradId": "70584",
                    "tle": [
                        "1 70584C 25243Y   25306.05048611 -.01459000  00000+0 -42353-2 0  3062",
                        "2 70584  53.1537 124.5116 0000445  84.9979 249.8026 15.93676292    11"
                    ]
                },
                {
                    "noradId": "70583",
                    "tle": [
                        "1 70583C 25243X   25306.04562500 -.01450100  00000+0 -42197-2 0  3066",
                        "2 70583  53.1537 124.5390 0000475  78.4711 227.0059 15.93620614    10"
                    ]
                },
                {
                    "noradId": "70585",
                    "tle": [
                        "1 70585C 25243Z   25306.05048611 -.01443800  00000+0 -42167-2 0  3067",
                        "2 70585  53.1538 124.5171 0000526  93.0429 238.9637 15.93543703    12"
                    ]
                },
                {
                    "noradId": "70586",
                    "tle": [
                        "1 70586C 25243AA  25306.04423611 -.01422300  00000+0 -41667-2 0  3060",
                        "2 70586  53.1538 124.5527 0000443  74.2070 220.0371 15.93461922    18"
                    ]
                },
                {
                    "noradId": "70587",
                    "tle": [
                        "1 70587C 25243AB  25306.04562500 -.01412700  00000+0 -41547-2 0  3062",
                        "2 70587  53.1538 124.5494 0000481  75.8163 224.6983 15.93378178    13"
                    ]
                },
                {
                    "noradId": "70589",
                    "tle": [
                        "1 70589C 25243AD  25306.04979167 -.01391600  00000+0 -41336-2 0  3066",
                        "2 70589  53.1538 124.5372 0000442  84.4119 235.6900 15.93164283    15"
                    ]
                },
                {
                    "noradId": "70588",
                    "tle": [
                        "1 70588C 25243AC  25306.05048611 -.01400900  00000+0 -41357-2 0  3064",
                        "2 70588  53.1538 124.5277 0000436  82.0276 244.9338 15.93291800    13"
                    ]
                },
                {
                    "noradId": "70564",
                    "tle": [
                        "1 70564C 25243C   25306.04840278 -.01370900  00000+0 -40999-2 0  3063",
                        "2 70564  53.1537 124.5507 0000564  82.8018 226.0790 15.93011884    11"
                    ]
                },
                {
                    "noradId": "70563",
                    "tle": [
                        "1 70563C 25243B   25306.05187500 -.01382600  00000+0 -41208-2 0  3069",
                        "2 70563  53.1537 124.5291 0000505  84.6287 246.0143 15.93089160    19"
                    ]
                },
                {
                    "noradId": "70567",
                    "tle": [
                        "1 70567C 25243F   25306.04840278 -.01352600  00000+0 -40846-2 0  3064",
                        "2 70567  53.1537 124.5602 0000606  82.8731 221.5509 15.92804414    15"
                    ]
                },
                {
                    "noradId": "70562",
                    "tle": [
                        "1 70562C 25243A   25306.04631944 -.01397100  00000+0 -41347-2 0  3068",
                        "2 70562  53.1536 124.5520 0000608  88.8332 212.8485 15.93241053    14"
                    ]
                },
                {
                    "noradId": "70566",
                    "tle": [
                        "1 70566C 25243E   25306.05048611 -.01360600  00000+0 -40965-2 0  3066",
                        "2 70566  53.1537 124.5469 0000507  82.8655 234.9916 15.92871163    15"
                    ]
                },
                {
                    "noradId": "70576",
                    "tle": [
                        "1 70576C 25243Q   25306.04423611 -.01331700  00000+0 -40499-2 0  3064",
                        "2 70576  53.1537 124.5901 0000559  87.2554 189.6295 15.92646575    14"
                    ]
                },
                {
                    "noradId": "70565",
                    "tle": [
                        "1 70565C 25243D   25306.05118056 -.01363500  00000+0 -40927-2 0  3066",
                        "2 70565  53.1537 124.5403 0000513  88.1684 235.1345 15.92933172    18"
                    ]
                },
                {
                    "noradId": "70568",
                    "tle": [
                        "1 70568C 25243G   25306.04701389 -.01339700  00000+0 -40605-2 0  3063",
                        "2 70568  53.1538 124.5718 0000557  85.6389 209.0037 15.92721157    19"
                    ]
                },
                {
                    "noradId": "70577",
                    "tle": [
                        "1 70577C 25243R   25306.06576389 -.01324700  00000+0 -40537-2 0  3063",
                        "2 70577  53.1537 124.4835 0000815  93.1842 305.6937 15.92519348    11"
                    ]
                },
                {
                    "noradId": "70581",
                    "tle": [
                        "1 70581C 25243V   25306.04909722 -.01296400  00000+0 -40169-2 0  3063",
                        "2 70581  53.1538 124.5830 0000633  84.0202 212.2757 15.92248923    11"
                    ]
                },
                {
                    "noradId": "70579",
                    "tle": [
                        "1 70579C 25243T   25306.04909722 -.01311500  00000+0 -40348-2 0  3068",
                        "2 70579  53.1537 124.5755 0000592  75.4161 224.2387 15.92401537    19"
                    ]
                },
                {
                    "noradId": "70578",
                    "tle": [
                        "1 70578C 25243S   25306.04840278 -.01317700  00000+0 -40386-2 0  3067",
                        "2 70578  53.1537 124.5753 0000544  79.5020 217.9255 15.92481031    12"
                    ]
                },
                {
                    "noradId": "70582",
                    "tle": [
                        "1 70582C 25243W   25306.04701389 -.01279900  00000+0 -39928-2 0  3060",
                        "2 70582  53.1537 124.6003 0000566  77.3947 203.5740 15.92099146    16"
                    ]
                },
                {
                    "noradId": "70580",
                    "tle": [
                        "1 70580C 25243U   25306.06715278 -.01302500  00000+0 -40298-2 0  3067",
                        "2 70580  53.1538 124.4873 0000722  90.4626 311.2102 15.92283258    10"
                    ]
                },
                {
                    "noradId": "70573",
                    "tle": [
                        "1 70573C 25243M   25306.05187500 -.01272100  00000+0 -39860-2 0  3064",
                        "2 70573  53.1538 124.5805 0000438  67.7910 239.1820 15.92004973    15"
                    ]
                },
                {
                    "noradId": "70569",
                    "tle": [
                        "1 70569C 25243H   25306.04493056 -.01265900  00000+0 -39763-2 0  3066",
                        "2 70569  53.1537 124.6183 0000573  82.8098 182.7358 15.91950799    18"
                    ]
                },
                {
                    "noradId": "70570",
                    "tle": [
                        "1 70570C 25243J   25306.04354167 -.01250700  00000+0 -39534-2 0  3065",
                        "2 70570  53.1538 124.6318 0000634  79.6032 174.8520 15.91812499    18"
                    ]
                },
                {
                    "noradId": "70572",
                    "tle": [
                        "1 70572C 25243L   25306.05048611 -.01244500  00000+0 -39520-2 0  3068",
                        "2 70572  53.1538 124.6007 0000588  68.7995 223.6552 15.91715988    13"
                    ]
                },
                {
                    "noradId": "70575",
                    "tle": [
                        "1 70575C 25243P   25306.06298611 -.01260300  00000+0 -39815-2 0  3062",
                        "2 70575  53.1537 124.5294 0000529  83.8792 283.5594 15.91832603    15"
                    ]
                },
                {
                    "noradId": "70571",
                    "tle": [
                        "1 70571C 25243K   25306.04979167 -.01237800  00000+0 -39427-2 0  3066",
                        "2 70571  53.1538 124.6073 0000627  79.0134 207.9689 15.91649418    19"
                    ]
                },
                {
                    "noradId": "70574",
                    "tle": [
                        "1 70574C 25243N   25306.06715278 -.01285700  00000+0 -40089-2 0  3060",
                        "2 70574  53.1537 124.4949 0000598  75.6088 322.3327 15.92114967    16"
                    ]
                }
            ]
        }
    ],
    "config": {}
}